{"fetched_at":"2026-03-29T16:36:15Z","count":15609,"tles":[{"name":"STARLINK-32875","line1":"1 62951U 25029D   26087.85688850  .00015593  00000+0  53743-3 0  9999","line2":"2 62951  53.1600 141.1949 0001373  83.8069 276.3088 15.30202749 64295","category":"Starlink"}]}